idElset,classificationMarking,satNo,epoch,meanMotion,idOnOrbit,uct,eccentricity,inclination,raan,argOfPerigee,meanAnomaly,bStar,meanMotionDot,meanMotionDDot,semiMajorAxis,period,apogee,perigee,origObjectId,line1,line2,createdAt,createdBy,source,dataMode,ephemType,origNetwork,elset
7a67c8ae-0505-48ac-9b89-cf78be0994f8,U//PR-EXO-ELSETS,41121,2025-08-09T00:06:12.046463Z,1.002684585555814,41121,False,0.000281468946931383,0.0458885260030434,106.3897664158868,7.069286719197286,286.0816597950657,0.0,0.0,0.0,42165.66656231035,1436.144547092813,42177.53488807431,42153.7982365464,41121,1 41121U 15075A   25221.00430609 +.00000000 +00000+0 +00000+0 2 99990,2 41121   0.0459 106.3898 0002814   7.0693 286.0817  1.00268458000000,2025-08-09T00:42:32.184Z,system.exo,EXO,REAL,2,OPS1,"{'NORAD_ID': 41121, 'classification': 'U', 'COSPAR_ID': '15075A', 'BC': 0.0, 'n_ddot': 0.0, 'B_star': 0.0, 'ephemeris_type': 2, 'elset_num': 9999, 'inclination': 0.0459, 'RAAN': 106.3898, 'eccentricity': 0.0002814, 'perigee': 7.0693, 'mean_anomaly': 286.0817, 'mean_motion': 1.00268458, 'rev_num': 0, 'line1': '1 41121U 15075A   25221.00430609 +.00000000 +00000+0 +00000+0 2 99990', 'line2': '2 41121   0.0459 106.3898 0002814   7.0693 286.0817  1.00268458000000', 'epoch': datetime.datetime(2025, 8, 9, 0, 6, 12, 46176)}"
9e87d11b-b2ae-4449-840c-0b6be570d0af,U//PR-EXO-ELSETS,63361,2025-08-09T20:04:03.623556Z,1.002697468166418,63361,False,0.00305226108512802,5.177752812511679,278.6497277129455,356.5111474427288,64.4092465617619,0.0,0.0,0.0,42165.30539985036,1436.126095574226,42294.00492066486,42036.60587903586,63361,1 63361U 25062A   25221.83615305 +.00000000 +00000+0 +00000+0 2 99996,2 63361   5.1778 278.6497 0030522 356.5111  64.4092  1.00269746000006,2025-08-09T20:57:30.898Z,system.exo,EXO,REAL,2,OPS1,"{'NORAD_ID': 63361, 'classification': 'U', 'COSPAR_ID': '25062A', 'BC': 0.0, 'n_ddot': 0.0, 'B_star': 0.0, 'ephemeris_type': 2, 'elset_num': 9999, 'inclination': 5.1778, 'RAAN': 278.6497, 'eccentricity': 0.0030522, 'perigee': 356.5111, 'mean_anomaly': 64.4092, 'mean_motion': 1.00269746, 'rev_num': 0, 'line1': '1 63361U 25062A   25221.83615305 +.00000000 +00000+0 +00000+0 2 99996', 'line2': '2 63361   5.1778 278.6497 0030522 356.5111  64.4092  1.00269746000006', 'epoch': datetime.datetime(2025, 8, 9, 20, 4, 3, 623520)}"
a6102290-92f2-4506-acea-b81c15042be1,U//PR-EXO-ELSETS,45986,2025-08-09T20:29:52.414512Z,1.002697437493094,45986,False,6.6702477399596e-05,0.02732008087517556,261.4657155925638,338.762259075855,105.7951781363287,0.0,0.0,0.0,42165.30625976417,1436.126139506483,42168.11879015201,42162.49372937633,45986,1 45986U 20053B   25221.85407887 +.00000000 +00000+0 +00000+0 2 99990,2 45986   0.0273 261.4657 0000667 338.7623 105.7952  1.00269743000009,2025-08-09T21:00:30.717Z,system.exo,EXO,REAL,2,OPS1,"{'NORAD_ID': 45986, 'classification': 'U', 'COSPAR_ID': '20053B', 'BC': 0.0, 'n_ddot': 0.0, 'B_star': 0.0, 'ephemeris_type': 2, 'elset_num': 9999, 'inclination': 0.0273, 'RAAN': 261.4657, 'eccentricity': 6.67e-05, 'perigee': 338.7623, 'mean_anomaly': 105.7952, 'mean_motion': 1.00269743, 'rev_num': 0, 'line1': '1 45986U 20053B   25221.85407887 +.00000000 +00000+0 +00000+0 2 99990', 'line2': '2 45986   0.0273 261.4657 0000667 338.7623 105.7952  1.00269743000009', 'epoch': datetime.datetime(2025, 8, 9, 20, 29, 52, 414368)}"
140ae04b-e752-4b53-aea9-95cfb051b451,U//PR-EXO-ELSETS,38332,2025-08-09T18:26:33.619117Z,1.002688281806872,38332,False,0.0002364390117688999,0.02751720293590746,260.3075022598518,229.901528229041,236.7783185359826,0.0,0.0,0.0,42165.5629375593,1436.139252974095,42175.53252159093,42155.59335352766,38332,1 38332U 12023B   25221.76844467 +.00000000 +00000+0 +00000+0 2 99994,2 38332   0.0275 260.3075 0002364 229.9015 236.7783  1.00268828000002,2025-08-09T18:48:30.759Z,system.exo,EXO,REAL,2,OPS1,"{'NORAD_ID': 38332, 'classification': 'U', 'COSPAR_ID': '12023B', 'BC': 0.0, 'n_ddot': 0.0, 'B_star': 0.0, 'ephemeris_type': 2, 'elset_num': 9999, 'inclination': 0.0275, 'RAAN': 260.3075, 'eccentricity': 0.0002364, 'perigee': 229.9015, 'mean_anomaly': 236.7783, 'mean_motion': 1.00268828, 'rev_num': 0, 'line1': '1 38332U 12023B   25221.76844467 +.00000000 +00000+0 +00000+0 2 99994', 'line2': '2 38332   0.0275 260.3075 0002364 229.9015 236.7783  1.00268828000002', 'epoch': datetime.datetime(2025, 8, 9, 18, 26, 33, 619488)}"
a88a8b04-6c91-4281-a16d-9e398d854f23,U//PR-EXO-ELSETS,35755,2025-08-09T20:10:58.355083Z,1.002698385112335,35755,False,0.0001986137218960986,0.2981392040770586,89.02855827381336,48.74167469374988,255.585102068814,0.0,0.0,0.0,42165.27969367517,1436.124782268072,42173.65429680992,42156.90509054041,35755,1 35755U 09044A   25221.84095318 +.00000000 +00000+0 +00000+0 2 99991,2 35755   0.2981  89.0286 0001986  48.7417 255.5851  1.00269838000003,2025-08-09T20:48:30.048Z,system.exo,EXO,REAL,2,OPS1,"{'NORAD_ID': 35755, 'classification': 'U', 'COSPAR_ID': '09044A', 'BC': 0.0, 'n_ddot': 0.0, 'B_star': 0.0, 'ephemeris_type': 2, 'elset_num': 9999, 'inclination': 0.2981, 'RAAN': 89.0286, 'eccentricity': 0.0001986, 'perigee': 48.7417, 'mean_anomaly': 255.5851, 'mean_motion': 1.00269838, 'rev_num': 0, 'line1': '1 35755U 09044A   25221.84095318 +.00000000 +00000+0 +00000+0 2 99991', 'line2': '2 35755   0.2981  89.0286 0001986  48.7417 255.5851  1.00269838000003', 'epoch': datetime.datetime(2025, 8, 9, 20, 10, 58, 354752)}"
957c2332-aea7-4d6b-8273-f8096d8596fe,U//PR-EXO-ELSETS,32767,2025-08-09T19:55:44.419183Z,1.002682243573428,32767,False,0.000195632226812577,0.009522595290038516,343.6420570382978,172.1726011614878,233.6286815750164,0.0,0.0,0.0,42165.73222033949,1436.147901520654,42173.98119642895,42157.48324425004,32767,1 32767U 08018A   25221.83037522 +.00000000 +00000+0 +00000+0 2 99993,2 32767   0.0095 343.6421 0001956 172.1726 233.6287  1.00268224000007,2025-08-09T20:15:30.774Z,system.exo,EXO,REAL,2,OPS1,"{'NORAD_ID': 32767, 'classification': 'U', 'COSPAR_ID': '08018A', 'BC': 0.0, 'n_ddot': 0.0, 'B_star': 0.0, 'ephemeris_type': 2, 'elset_num': 9999, 'inclination': 0.0095, 'RAAN': 343.6421, 'eccentricity': 0.0001956, 'perigee': 172.1726, 'mean_anomaly': 233.6287, 'mean_motion': 1.00268224, 'rev_num': 0, 'line1': '1 32767U 08018A   25221.83037522 +.00000000 +00000+0 +00000+0 2 99993', 'line2': '2 32767   0.0095 343.6421 0001956 172.1726 233.6287  1.00268224000007', 'epoch': datetime.datetime(2025, 8, 9, 19, 55, 44, 419008)}"
15065eee-12b7-4f2b-a3c3-71b1bd2648a7,U//PR-EXO-ELSETS,29045,2025-08-09T19:29:25.508093Z,1.002688785414204,29045,False,0.0001224680027722649,0.03279972216982609,272.0523325024141,279.4313353410095,191.4589240968608,0.0,0.0,0.0,42165.54881892898,1436.138531663288,42170.71274947863,42160.38488837933,29045,1 29045U 06010A   25221.81210079 +.00000000 +00000+0 +00000+0 2 99996,2 29045   0.0328 272.0523 0001224 279.4313 191.4589  1.00268878000001,2025-08-09T19:57:30.798Z,system.exo,EXO,REAL,2,OPS1,"{'NORAD_ID': 29045, 'classification': 'U', 'COSPAR_ID': '06010A', 'BC': 0.0, 'n_ddot': 0.0, 'B_star': 0.0, 'ephemeris_type': 2, 'elset_num': 9999, 'inclination': 0.0328, 'RAAN': 272.0523, 'eccentricity': 0.0001224, 'perigee': 279.4313, 'mean_anomaly': 191.4589, 'mean_motion': 1.00268878, 'rev_num': 0, 'line1': '1 29045U 06010A   25221.81210079 +.00000000 +00000+0 +00000+0 2 99996', 'line2': '2 29045   0.0328 272.0523 0001224 279.4313 191.4589  1.00268878000001', 'epoch': datetime.datetime(2025, 8, 9, 19, 29, 25, 508256)}"
796a83bb-6fb4-4204-b95f-075e1d60adc8,U//PR-EXO-ELSETS,38104,2025-08-09T19:09:42.736275Z,1.002535052113007,38104,False,0.001041631999254353,8.11228753597308,59.60127489927949,295.6013507641381,71.96107871155968,0.0,0.0,0.0,42169.85928058962,1436.358755701322,42213.78475542033,42125.9338057589,38104,1 38104U 12012D   25221.79841130 +.00000000 +00000+0 +00000+0 2 99996,2 38104   8.1123  59.6013 0010416 295.6014  71.9611  1.00253505000002,2025-08-09T19:51:30.074Z,system.exo,EXO,REAL,2,OPS1,"{'NORAD_ID': 38104, 'classification': 'U', 'COSPAR_ID': '12012D', 'BC': 0.0, 'n_ddot': 0.0, 'B_star': 0.0, 'ephemeris_type': 2, 'elset_num': 9999, 'inclination': 8.1123, 'RAAN': 59.6013, 'eccentricity': 0.0010416, 'perigee': 295.6014, 'mean_anomaly': 71.9611, 'mean_motion': 1.00253505, 'rev_num': 0, 'line1': '1 38104U 12012D   25221.79841130 +.00000000 +00000+0 +00000+0 2 99996', 'line2': '2 38104   8.1123  59.6013 0010416 295.6014  71.9611  1.00253505000002', 'epoch': datetime.datetime(2025, 8, 9, 19, 9, 42, 736320)}"
f68860f2-d35b-4f11-9a8a-efe02356e97e,U//PR-EXO-ELSETS,47613,2025-08-09T19:44:55.868124Z,1.002665770419529,47613,False,0.0001196719922094673,0.2134984812664323,262.445872989016,195.3448150658897,335.4570815097904,0.0,0.0,0.0,42166.19405632024,1436.171496507241,42171.24016876685,42161.14794387364,47613,1 47613U 21010A   25221.82286884 +.00000000 +00000+0 +00000+0 2 99992,2 47613   0.2135 262.4459 0001196 195.3448 335.4571  1.00266577000009,2025-08-09T20:06:32.194Z,system.exo,EXO,REAL,2,OPS1,"{'NORAD_ID': 47613, 'classification': 'U', 'COSPAR_ID': '21010A', 'BC': 0.0, 'n_ddot': 0.0, 'B_star': 0.0, 'ephemeris_type': 2, 'elset_num': 9999, 'inclination': 0.2135, 'RAAN': 262.4459, 'eccentricity': 0.0001196, 'perigee': 195.3448, 'mean_anomaly': 335.4571, 'mean_motion': 1.00266577, 'rev_num': 0, 'line1': '1 47613U 21010A   25221.82286884 +.00000000 +00000+0 +00000+0 2 99992', 'line2': '2 47613   0.2135 262.4459 0001196 195.3448 335.4571  1.00266577000009', 'epoch': datetime.datetime(2025, 8, 9, 19, 44, 55, 867776)}"
